[ {"OBJECT_NAME": "CZ-4C R/B", "OBJECT_ID": "2015-069B", "EPOCH": "2026-03-10T03:38:27.883968", "MEAN_MOTION": 15.3083534, "ECCENTRICITY": 0.00587221, "INCLINATION": 97.4861, "RA_OF_ASC_NODE": 138.1871, "ARG_OF_PERICENTER": 155.0036, "MEAN_ANOMALY": 205.4069, "EPHEMERIS_TYPE": 0, "CLASSIFICATION_TYPE": "U", "NORAD_CAT_ID": 41039, "ELEMENT_SET_NO": 999, "REV_AT_EPOCH": 56695, "BSTAR": 0.00038117891, "MEAN_MOTION_DOT": 0.00011904, "MEAN_MOTION_DDOT": 0}, {"OBJECT_NAME": "NOAA 16 DEB", "OBJECT_ID": "2000-055FH", "EPOCH": "2026-03-09T12:30:03.934368", "MEAN_MOTION": 15.16827851, "ECCENTRICITY": 0.00080503, "INCLINATION": 98.9144, "RA_OF_ASC_NODE": 269.3218, "ARG_OF_PERICENTER": 278.4203, "MEAN_ANOMALY": 81.6113, "EPHEMERIS_TYPE": 0, "CLASSIFICATION_TYPE": "U", "NORAD_CAT_ID": 41257, "ELEMENT_SET_NO": 999, "REV_AT_EPOCH": 52995, "BSTAR": 0.010284054, "MEAN_MOTION_DOT": 0.00208024, "MEAN_MOTION_DDOT": 0}, {"OBJECT_NAME": "NOAA 16 DEB", "OBJECT_ID": "2000-055PP", "EPOCH": "2026-03-07T09:37:02.399808", "MEAN_MOTION": 14.94870962, "ECCENTRICITY": 0.00127779, "INCLINATION": 98.9453, "RA_OF_ASC_NODE": 285.7448, "ARG_OF_PERICENTER": 347.412, "MEAN_ANOMALY": 12.6776, "EPHEMERIS_TYPE": 0, "CLASSIFICATION_TYPE": "U", "NORAD_CAT_ID": 41709, "ELEMENT_SET_NO": 999, "REV_AT_EPOCH": 51965, "BSTAR": 0.009194972, "MEAN_MOTION_DOT": 0.00101727, "MEAN_MOTION_DDOT": 0}, {"OBJECT_NAME": "COSMOS 1275 DEB", "OBJECT_ID": "1981-053RH", "EPOCH": "2026-03-08T19:02:02.535360", "MEAN_MOTION": 15.08606043, "ECCENTRICITY": 0.00097404, "INCLINATION": 83.3308, "RA_OF_ASC_NODE": 196.5935, "ARG_OF_PERICENTER": 282.896, "MEAN_ANOMALY": 77.1182, "EPHEMERIS_TYPE": 0, "CLASSIFICATION_TYPE": "U", "NORAD_CAT_ID": 42145, "ELEMENT_SET_NO": 999, "REV_AT_EPOCH": 64889, "BSTAR": 0.0090120528, "MEAN_MOTION_DOT": 0.00143721, "MEAN_MOTION_DDOT": 0}, {"OBJECT_NAME": "CZ-4C DEB", "OBJECT_ID": "2015-069C", "EPOCH": "2026-03-07T10:00:21.558816", "MEAN_MOTION": 15.31048021, "ECCENTRICITY": 0.00583916, "INCLINATION": 97.4862, "RA_OF_ASC_NODE": 135.8649, "ARG_OF_PERICENTER": 162.5456, "MEAN_ANOMALY": 197.781, "EPHEMERIS_TYPE": 0, "CLASSIFICATION_TYPE": "U", "NORAD_CAT_ID": 42670, "ELEMENT_SET_NO": 999, "REV_AT_EPOCH": 51749, "BSTAR": 0.00045809658, "MEAN_MOTION_DOT": 0.00014416, "MEAN_MOTION_DDOT": 0}, {"OBJECT_NAME": "OBJECT J", "OBJECT_ID": "2017-042J", "EPOCH": "2026-03-09T23:17:19.167936", "MEAN_MOTION": 15.08203331, "ECCENTRICITY": 0.0007819, "INCLINATION": 97.4246, "RA_OF_ASC_NODE": 235.0467, "ARG_OF_PERICENTER": 81.5059, "MEAN_ANOMALY": 278.7055, "EPHEMERIS_TYPE": 0, "CLASSIFICATION_TYPE": "U", "NORAD_CAT_ID": 42833, "ELEMENT_SET_NO": 999, "REV_AT_EPOCH": 47205, "BSTAR": 0.00039182, "MEAN_MOTION_DOT": 6.006e-05, "MEAN_MOTION_DDOT": 0}, {"OBJECT_NAME": "OBJECT K", "OBJECT_ID": "2017-042K", "EPOCH": "2026-03-10T05:26:05.949600", "MEAN_MOTION": 15.08000126, "ECCENTRICITY": 0.000971, "INCLINATION": 97.4101, "RA_OF_ASC_NODE": 234.1919, "ARG_OF_PERICENTER": 48.1913, "MEAN_ANOMALY": 312.0143, "EPHEMERIS_TYPE": 0, "CLASSIFICATION_TYPE": "U", "NORAD_CAT_ID": 42834, "ELEMENT_SET_NO": 999, "REV_AT_EPOCH": 47206, "BSTAR": 0.00047383296, "MEAN_MOTION_DOT": 7.239e-05, "MEAN_MOTION_DDOT": 0}, {"OBJECT_NAME": "OBJECT U", "OBJECT_ID": "2017-042U", "EPOCH": "2026-03-10T06:08:01.210848", "MEAN_MOTION": 15.00678364, "ECCENTRICITY": 0.00148171, "INCLINATION": 97.4238, "RA_OF_ASC_NODE": 230.0556, "ARG_OF_PERICENTER": 55.6886, "MEAN_ANOMALY": 304.5738, "EPHEMERIS_TYPE": 0, "CLASSIFICATION_TYPE": "U", "NORAD_CAT_ID": 42843, "ELEMENT_SET_NO": 999, "REV_AT_EPOCH": 47178, "BSTAR": 0.0003155787, "MEAN_MOTION_DOT": 3.947e-05, "MEAN_MOTION_DDOT": 0}, {"OBJECT_NAME": "CZ-4C DEB", "OBJECT_ID": "2018-031G", "EPOCH": "2026-03-10T04:47:10.407264", "MEAN_MOTION": 15.02174546, "ECCENTRICITY": 0.00079292, "INCLINATION": 97.7701, "RA_OF_ASC_NODE": 152.8103, "ARG_OF_PERICENTER": 231.5016, "MEAN_ANOMALY": 128.5498, "EPHEMERIS_TYPE": 0, "CLASSIFICATION_TYPE": "U", "NORAD_CAT_ID": 43265, "ELEMENT_SET_NO": 999, "REV_AT_EPOCH": 42957, "BSTAR": 0.00088332082, "MEAN_MOTION_DOT": 0.00011587, "MEAN_MOTION_DDOT": 0}, {"OBJECT_NAME": "CZ-4C DEB", "OBJECT_ID": "2018-031H", "EPOCH": "2026-03-09T10:10:58.582560", "MEAN_MOTION": 15.14033759, "ECCENTRICITY": 0.00199639, "INCLINATION": 98.1663, "RA_OF_ASC_NODE": 242.9335, "ARG_OF_PERICENTER": 272.748, "MEAN_ANOMALY": 87.1465, "EPHEMERIS_TYPE": 0, "CLASSIFICATION_TYPE": "U", "NORAD_CAT_ID": 43266, "ELEMENT_SET_NO": 999, "REV_AT_EPOCH": 43166, "BSTAR": 0.00079064643, "MEAN_MOTION_DOT": 0.00014379, "MEAN_MOTION_DDOT": 0}, {"OBJECT_NAME": "PSLV R/B", "OBJECT_ID": "2018-071C", "EPOCH": "2026-03-10T01:52:14.192256", "MEAN_MOTION": 15.00059386, "ECCENTRICITY": 0.00237177, "INCLINATION": 97.4441, "RA_OF_ASC_NODE": 249.7473, "ARG_OF_PERICENTER": 104.4078, "MEAN_ANOMALY": 255.9781, "EPHEMERIS_TYPE": 0, "CLASSIFICATION_TYPE": "U", "NORAD_CAT_ID": 43620, "ELEMENT_SET_NO": 999, "REV_AT_EPOCH": 40756, "BSTAR": 0.00020432428, "MEAN_MOTION_DOT": 2.502e-05, "MEAN_MOTION_DDOT": 0}, {"OBJECT_NAME": "OBJECT P", "OBJECT_ID": "2018-099P", "EPOCH": "2026-03-10T03:34:48.827136", "MEAN_MOTION": 15.30855167, "ECCENTRICITY": 0.00077158, "INCLINATION": 97.4365, "RA_OF_ASC_NODE": 132.3784, "ARG_OF_PERICENTER": 275.2405, "MEAN_ANOMALY": 84.7956, "EPHEMERIS_TYPE": 0, "CLASSIFICATION_TYPE": "U", "NORAD_CAT_ID": 43771, "ELEMENT_SET_NO": 999, "REV_AT_EPOCH": 39837, "BSTAR": 0.00072367951, "MEAN_MOTION_DOT": 0.00021556, "MEAN_MOTION_DDOT": 0}, {"OBJECT_NAME": "OBJECT T", "OBJECT_ID": "2018-099T", "EPOCH": "2026-03-10T01:40:42.601728", "MEAN_MOTION": 15.09441522, "ECCENTRICITY": 0.00044687, "INCLINATION": 97.4348, "RA_OF_ASC_NODE": 116.3814, "ARG_OF_PERICENTER": 319.2386, "MEAN_ANOMALY": 40.8509, "EPHEMERIS_TYPE": 0, "CLASSIFICATION_TYPE": "U", "NORAD_CAT_ID": 43775, "ELEMENT_SET_NO": 999, "REV_AT_EPOCH": 39736, "BSTAR": 0.00032110839, "MEAN_MOTION_DOT": 5.078e-05, "MEAN_MOTION_DDOT": 0}, {"OBJECT_NAME": "OBJECT BE", "OBJECT_ID": "2018-099BE", "EPOCH": "2026-03-10T02:18:23.286240", "MEAN_MOTION": 15.09977017, "ECCENTRICITY": 0.00064096, "INCLINATION": 97.4031, "RA_OF_ASC_NODE": 112.2373, "ARG_OF_PERICENTER": 338.4959, "MEAN_ANOMALY": 21.6001, "EPHEMERIS_TYPE": 0, "CLASSIFICATION_TYPE": "U", "NORAD_CAT_ID": 43810, "ELEMENT_SET_NO": 999, "REV_AT_EPOCH": 39705, "BSTAR": 0.00026319348, "MEAN_MOTION_DOT": 4.214e-05, "MEAN_MOTION_DDOT": 0}, {"OBJECT_NAME": "WT 1A", "OBJECT_ID": "2019-032F", "EPOCH": "2026-03-10T06:09:40.766112", "MEAN_MOTION": 15.75813442, "ECCENTRICITY": 0.00079336, "INCLINATION": 44.975, "RA_OF_ASC_NODE": 74.8074, "ARG_OF_PERICENTER": 90.2297, "MEAN_ANOMALY": 269.9513, "EPHEMERIS_TYPE": 0, "CLASSIFICATION_TYPE": "U", "NORAD_CAT_ID": 44315, "ELEMENT_SET_NO": 999, "REV_AT_EPOCH": 37394, "BSTAR": 0.0013768124, "MEAN_MOTION_DOT": 0.00224017, "MEAN_MOTION_DDOT": 0}, {"OBJECT_NAME": "ICON", "OBJECT_ID": "2019-068A", "EPOCH": "2026-03-10T00:10:25.827168", "MEAN_MOTION": 15.06277263, "ECCENTRICITY": 0.00134101, "INCLINATION": 26.9848, "RA_OF_ASC_NODE": 325.4875, "ARG_OF_PERICENTER": 187.8013, "MEAN_ANOMALY": 172.2341, "EPHEMERIS_TYPE": 0, "CLASSIFICATION_TYPE": "U", "NORAD_CAT_ID": 44628, "ELEMENT_SET_NO": 999, "REV_AT_EPOCH": 35106, "BSTAR": 0.00030749653, "MEAN_MOTION_DOT": 4.872e-05, "MEAN_MOTION_DDOT": 0}, {"OBJECT_NAME": "COSMOS 2535 DEB", "OBJECT_ID": "2019-039M", "EPOCH": "2026-03-09T23:25:22.974240", "MEAN_MOTION": 15.28418961, "ECCENTRICITY": 0.00147527, "INCLINATION": 97.5612, "RA_OF_ASC_NODE": 141.1334, "ARG_OF_PERICENTER": 322.2443, "MEAN_ANOMALY": 37.776, "EPHEMERIS_TYPE": 0, "CLASSIFICATION_TYPE": "U", "NORAD_CAT_ID": 44641, "ELEMENT_SET_NO": 999, "REV_AT_EPOCH": 35195, "BSTAR": 0.00083792822, "MEAN_MOTION_DOT": 0.00023226, "MEAN_MOTION_DDOT": 0}, {"OBJECT_NAME": "PSLV R/B", "OBJECT_ID": "2019-081B", "EPOCH": "2026-03-10T06:59:16.931616", "MEAN_MOTION": 15.51301178, "ECCENTRICITY": 0.00222267, "INCLINATION": 97.1898, "RA_OF_ASC_NODE": 109.138, "ARG_OF_PERICENTER": 104.7483, "MEAN_ANOMALY": 255.6235, "EPHEMERIS_TYPE": 0, "CLASSIFICATION_TYPE": "U", "NORAD_CAT_ID": 44805, "ELEMENT_SET_NO": 999, "REV_AT_EPOCH": 34896, "BSTAR": 0.00052274638, "MEAN_MOTION_DOT": 0.00030968, "MEAN_MOTION_DDOT": 0}, {"OBJECT_NAME": "OBJECT N", "OBJECT_ID": "2019-093N", "EPOCH": "2026-03-10T07:07:01.857792", "MEAN_MOTION": 15.29926661, "ECCENTRICITY": 0.00063314, "INCLINATION": 98.0505, "RA_OF_ASC_NODE": 227.371, "ARG_OF_PERICENTER": 32.4148, "MEAN_ANOMALY": 327.7479, "EPHEMERIS_TYPE": 0, "CLASSIFICATION_TYPE": "U", "NORAD_CAT_ID": 44891, "ELEMENT_SET_NO": 999, "REV_AT_EPOCH": 33963, "BSTAR": 0.0012239032, "MEAN_MOTION_DOT": 0.00035528, "MEAN_MOTION_DDOT": 0}, {"OBJECT_NAME": "FREGAT DEB", "OBJECT_ID": "2011-037AB", "EPOCH": "2026-03-10T03:17:50.400096", "MEAN_MOTION": 13.55159637, "ECCENTRICITY": 0.08324153, "INCLINATION": 51.2021, "RA_OF_ASC_NODE": 347.2987, "ARG_OF_PERICENTER": 108.5155, "MEAN_ANOMALY": 260.7967, "EPHEMERIS_TYPE": 0, "CLASSIFICATION_TYPE": "U", "NORAD_CAT_ID": 45635, "ELEMENT_SET_NO": 999, "REV_AT_EPOCH": 24771, "BSTAR": 0.010819064, "MEAN_MOTION_DOT": 0.00083626, "MEAN_MOTION_DDOT": 0}, {"OBJECT_NAME": "FREGAT DEB", "OBJECT_ID": "2011-037LS", "EPOCH": "2026-03-09T08:54:22.917312", "MEAN_MOTION": 11.92158719, "ECCENTRICITY": 0.15355515, "INCLINATION": 51.4914, "RA_OF_ASC_NODE": 189.2565, "ARG_OF_PERICENTER": 293.3488, "MEAN_ANOMALY": 51.3308, "EPHEMERIS_TYPE": 0, "CLASSIFICATION_TYPE": "U", "NORAD_CAT_ID": 46411, "ELEMENT_SET_NO": 999, "REV_AT_EPOCH": 23768, "BSTAR": 0.0033127922, "MEAN_MOTION_DOT": 0.00011599, "MEAN_MOTION_DDOT": 0}, {"OBJECT_NAME": "CZ-4C R/B", "OBJECT_ID": "2020-103C", "EPOCH": "2026-03-10T01:41:51.968832", "MEAN_MOTION": 15.00867906, "ECCENTRICITY": 0.00868264, "INCLINATION": 98.3813, "RA_OF_ASC_NODE": 98.3835, "ARG_OF_PERICENTER": 304.9166, "MEAN_ANOMALY": 54.3919, "EPHEMERIS_TYPE": 0, "CLASSIFICATION_TYPE": "U", "NORAD_CAT_ID": 47304, "ELEMENT_SET_NO": 999, "REV_AT_EPOCH": 28331, "BSTAR": 0.0002281597, "MEAN_MOTION_DOT": 3.066e-05, "MEAN_MOTION_DDOT": 0}]